IRIDIUM 155             
1 43573U 18061E   25317.03798084  .00000151  00000+0  46948-4 0  9996
2 43573  86.3965 147.0461 0001799  87.2696 272.8705 14.34218386382372
IRIDIUM 154             
1 43574U 18061F   25317.01896273  .00000081  00000+0  21906-4 0  9993
2 43574  86.3973 147.1769 0002051  88.6808 271.4623 14.34218222382425
IRIDIUM 163             
1 43575U 18061G   25317.06970381  .00000071  00000+0  18160-4 0  9999
2 43575  86.3964 147.0777 0002134  84.5143 275.6296 14.34218021382400
IRIDIUM 156             
1 43576U 18061H   25317.04433263  .00000013  00000+0 -22986-5 0  9990
2 43576  86.3973 147.0953 0001649  90.2063 269.9321 14.34217687382392
IRIDIUM 164             
1 43577U 18061J   25317.02530580  .00000104  00000+0  29921-4 0  9994
2 43577  86.3968 147.1403 0002076  93.7572 266.3861 14.34218334382431
IRIDIUM 159             
1 43578U 18061K   25317.06336139  .00000032  00000+0  44052-5 0  9996
2 43578  86.3969 147.0659 0002214  87.6206 272.5243 14.34217588382405
IRIDIUM 180             
1 43922U 19002A   25317.06285731  .00000236  00000+0  77152-4 0  9998
2 43922  86.3949  83.9475 0002086  89.9309 270.2126 14.34218801358010
IRIDIUM 176             
1 43923U 19002B   25317.08965880  .00003201  00000+0  50387-3 0  9996
2 43923  86.6072  83.9111 0001838  89.9300 270.2127 14.72232114367457
IRIDIUM 168             
1 43924U 19002C   25317.05651444  .00000329  00000+0  11030-3 0  9992
2 43924  86.3951  84.0215 0001991  91.7091 268.4332 14.34219250357995
IRIDIUM 173             
1 43925U 19002D   25317.11359866  .00000034  00000+0  50443-5 0  9999
2 43925  86.3948  83.8951 0001984  89.0054 271.1370 14.34217772357986
IRIDIUM 169             
1 43926U 19002E   25317.00334792  .00000306  00000+0  93672-4 0  9991
2 43926  86.4201 115.5924 0001205  56.4787 303.6526 14.38611194359144
IRIDIUM 172             
1 43927U 19002F   25317.10725519  .00000382  00000+0  12924-3 0  9998
2 43927  86.3947  83.9050 0002269  90.3258 269.8198 14.34219396357993
IRIDIUM 175             
1 43928U 19002G   25317.15281760  .00002483  00000+0  38976-3 0  9998
2 43928  86.1531  27.9582 0002209 113.5998 246.5451 14.72256981367451
IRIDIUM 171             
1 43929U 19002H   25317.08822729  .00000264  00000+0  87329-4 0  9999
2 43929  86.3958  84.1958 0001980 100.9068 259.2350 14.34219043357984
IRIDIUM 170             
1 43930U 19002J   25317.09582417  .00003063  00000+0  48181-3 0  9991
2 43930  86.6072  83.9124 0002303  90.2443 269.9038 14.72250837367469
IRIDIUM 167             
1 43931U 19002K   25317.08188088  .00000293  00000+0  97461-4 0  9995
2 43931  86.3950  83.9366 0001638 102.0035 258.1344 14.34217478357987
IRIDIUM 181             
1 56726U 23068S   25317.07607532  .00000195  00000+0  51857-4 0  9997
2 56726  86.4506 147.1155 0002396  99.0224 261.1248 14.43313206131261
IRIDIUM 177             
1 56727U 23068T   25317.06503500  .00004371  00000+0  57159-3 0  9997
2 56727  86.1961  71.4200 0002185  89.5082 270.6389 14.80238909134391
IRIDIUM 174             
1 56728U 23068U   25317.08346889  .00003891  00000+0  61291-3 0  9993
2 56728  86.6077  84.0429 0002223  86.5281 273.6190 14.72258343134229
IRIDIUM 178             
1 56729U 23068V   25316.71612367  .00001100  00000+0  14134-3 0  9995
2 56729  86.6516 115.8450 0002003  94.8788 265.2662 14.80240161134347
IRIDIUM 179             
1 56730U 23068W   25316.98116097  .00000404  00000+0  49679-4 0  9994
2 56730  86.6760 124.0664 0001880 105.9604 254.1825 14.80235539134387
